[{"OBJECT_NAME":"SJ-11-03","OBJECT_ID":"2011-030A","EPOCH":"2026-03-09T23:29:54.715200","MEAN_MOTION":14.64220728,"ECCENTRICITY":0.00083094,"INCLINATION":97.9236,"RA_OF_ASC_NODE":36.6626,"ARG_OF_PERICENTER":357.4545,"MEAN_ANOMALY":43.1151,"EPHEMERIS_TYPE":0,"CLASSIFICATION_TYPE":"U","NORAD_CAT_ID":37730,"ELEMENT_SET_NO":999,"REV_AT_EPOCH":78259,"BSTAR":0.00019672092,"MEAN_MOTION_DOT":9.91e-6,"MEAN_MOTION_DDOT":0},{"OBJECT_NAME":"FENGYUN 1C DEB","OBJECT_ID":"1999-025BWF","EPOCH":"2026-03-09T10:49:46.578720","MEAN_MOTION":14.76111569,"ECCENTRICITY":0.00569308,"INCLINATION":98.8607,"RA_OF_ASC_NODE":247.3448,"ARG_OF_PERICENTER":99.9612,"MEAN_ANOMALY":260.8027,"EPHEMERIS_TYPE":0,"CLASSIFICATION_TYPE":"U","NORAD_CAT_ID":31492,"ELEMENT_SET_NO":999,"REV_AT_EPOCH":97783,"BSTAR":0.0038224651,"MEAN_MOTION_DOT":0.00027133,"MEAN_MOTION_DDOT":0}]
